FENGYUN 3D              
1 43010U 17072A   26201.90470534  .00000204  00000+0  11826-3 0  9994
2 43010  99.0154 176.9401 0001151   2.3764 357.7417 14.19745951449777
NOAA 20 (JPSS-1)        
1 43013U 17073A   26201.83472852  .00000031  00000+0  35500-4 0  9999
2 43013  98.7772 140.9994 0001577 118.6274 241.5061 14.19517244449248
GOES 17                 
1 43226U 18022A   26201.60063200 -.00000184  00000+0  00000+0 0  9990
2 43226   1.0209  85.1825 0000597  59.4321 280.4838  1.00272164 30756
SENTINEL-3B             
1 43437U 18039A   26201.78190778  .00000036  00000+0  32817-4 0  9993
2 43437  98.6231 268.8292 0001268 118.6255 241.5053 14.26737354428910
FENGYUN 2H              
1 43491U 18050A   26201.84782429 -.00000128  00000+0  00000+0 0  9990
2 43491   3.1162  78.6829 0002089 129.0421 115.1487  1.00267064 29772
METOP-C                 
1 43689U 18087A   26201.78356985  .00000032  00000+0  34503-4 0  9999
2 43689  98.6625 260.7698 0002097  86.5858 273.5559 14.21503807399608
GEO-KOMPSAT-2A          
1 43823U 18100A   26201.85761765 -.00000344  00000+0  00000+0 0  9996
2 43823   0.0288 144.4664 0002426 313.0961 278.0654  1.00272139 27967
METEOR-M2 2             
1 44387U 19038A   26201.89248197 -.00000169  00000+0 -53124-4 0  9992
2 44387  98.9171 189.6786 0000345 352.2549   7.8624 14.24372793366093
ARKTIKA-M 1             
1 47719U 21016A   26195.40739072 -.00000301  00000+0  00000+0 0  9996
2 47719  63.2662  53.6722 7297332 270.0591  14.4994  2.00611590 39330
FENGYUN 3E              
1 49008U 21062A   26201.88485642 -.00000223  00000+0 -84499-4 0  9994
2 49008  98.7509 204.9184 0001991  30.2593 329.8697 14.19905867261363
GOES 18                 
1 51850U 22021A   26201.73358698  .00000096  00000+0  00000+0 0  9999
2 51850   0.0160 142.8122 0000372  11.9765 270.7972  1.00270960  6925
NOAA 21 (JPSS-2)        
1 54234U 22150A   26201.79645031  .00000026  00000+0  33011-4 0  9993
2 54234  98.7059 140.0212 0002917  94.3736 265.7774 14.19541667191316
METEOSAT-12 (MTG-I1)    
1 54743U 22170C   26201.83210100 -.00000009  00000+0  00000+0 0  9999
2 54743   0.7309  20.6931 0004073  80.9959 136.0830  1.00269442 13316
TIANMU-1 03             
1 55973U 23039A   26201.79865815  .00010063  00000+0  19342-3 0  9997
2 55973  97.5252  17.1095 0002082   6.0907 354.0368 15.48144039186034
TIANMU-1 04             
1 55974U 23039B   26201.83942075  .00010261  00000+0  19291-3 0  9990
2 55974  97.5192  16.3085 0002450 350.3684   9.7519 15.48775955186055
TIANMU-1 05             
1 55975U 23039C   26201.84570892  .00010460  00000+0  20148-3 0  9990
2 55975  97.5236  16.7610 0002469  31.8906 328.2493 15.48070905186021
TIANMU-1 06             
1 55976U 23039D   26201.84498257  .00010994  00000+0  20728-3 0  9991
2 55976  97.5244  17.4303 0002509  20.9835 339.1518 15.48672737186056
FENGYUN 3G              
1 56232U 23055A   26201.81450414  .00015757  00000+0  24575-3 0  9991
2 56232  49.9914 172.5654 0006862  82.5579 277.6168 15.53953344185232
METEOR-M2 3             
1 57166U 23091A   26201.89459929 -.00000032  00000+0  47772-5 0  9993
2 57166  98.6064 256.1798 0005087  77.6307 282.5441 14.24049195159312
TIANMU-1 07             
1 57399U 23101A   26201.84754854  .00003801  00000+0  13282-3 0  9996
2 57399  97.2574 251.7471 0003339  52.7575 307.3970 15.30154024166798
TIANMU-1 08             
1 57400U 23101B   26201.87949744  .00003655  00000+0  12779-3 0  9993
2 57400  97.2562 251.5441 0004046  31.0957 329.0523 15.30157174166797
TIANMU-1 09             
1 57401U 23101C   26201.86210559  .00004371  00000+0  15211-3 0  9998
2 57401  97.2520 250.9257 0003928  51.8138 308.3456 15.30200975166792
TIANMU-1 10             
1 57402U 23101D   26201.83034860  .00003921  00000+0  13684-3 0  9997
2 57402  97.2600 251.9797 0005130  38.8482 321.3127 15.30173370166783
FENGYUN 3F              
1 57490U 23111A   26201.86795765  .00000002  00000+0  21601-4 0  9992
2 57490  98.6821 271.2465 0001163  75.1528 284.9777 14.19943986153644
ARKTIKA-M 2             
1 58584U 23198A   26196.17500106  .00000129  00000+0  00000+0 0  9997
2 58584  63.2178 151.2342 6910736 267.3397  18.7345  2.00608092 18886
TIANMU-1 11             
1 58645U 23205A   26201.86346831  .00003437  00000+0  13121-3 0  9997
2 58645  97.3446 222.8978 0007065 236.8946 123.1616 15.27297850142662
TIANMU-1 12             
1 58646U 23205B   26201.83671704  .00000979  00000+0  39680-4 0  9992
2 58646  97.3436 222.6157 0006328 215.7107 144.3709 15.26977641142643
TIANMU-1 13             
1 58647U 23205C   26201.86996113  .00003347  00000+0  12856-3 0  9997
2 58647  97.3463 222.9309 0006451 190.2758 169.8350 15.27122640142648
TIANMU-1 14             
1 58648U 23205D   26201.85419215  .00003729  00000+0  14267-3 0  9992
2 58648  97.3399 222.0708 0007038 197.5372 162.5625 15.27167672142644
TIANMU-1 19             
1 58660U 23208A   26201.86347536  .00005631  00000+0  18463-3 0  9992
2 58660  97.4525 318.3514 0005156 178.1071 182.0190 15.32029499142480
TIANMU-1 20             
1 58661U 23208B   26201.87515797  .00005285  00000+0  16709-3 0  9996
2 58661  97.4468 319.0336 0006878 191.0329 169.0763 15.33218092142581
