OBJECT_NAME,OBJECT_ID,EPOCH,MEAN_MOTION,ECCENTRICITY,INCLINATION,RA_OF_ASC_NODE,ARG_OF_PERICENTER,MEAN_ANOMALY,EPHEMERIS_TYPE,CLASSIFICATION_TYPE,NORAD_CAT_ID,ELEMENT_SET_NO,REV_AT_EPOCH,BSTAR,MEAN_MOTION_DOT,MEAN_MOTION_DDOT
FENGYUN 3D,2017-072A,2026-07-20T21:42:46.541376,14.19745951,.0001151,99.0154,176.9401,2.3764,357.7417,0,U,43010,999,44977,.11826E-3,.204E-5,0
NOAA 20 (JPSS-1),2017-073A,2026-07-20T20:02:00.544128,14.19517244,.0001577,98.7772,140.9994,118.6274,241.5061,0,U,43013,999,44924,.355E-4,.31E-6,0
GOES 17,2018-022A,2026-07-20T14:24:54.604800,1.00272164,.0000597,1.0209,85.1825,59.4321,280.4838,0,U,43226,999,3075,0,-.184E-5,0
SENTINEL-3B,2018-039A,2026-07-20T18:45:56.832192,14.26737354,.0001268,98.6231,268.8292,118.6255,241.5053,0,U,43437,999,42891,.32817E-4,.36E-6,0
FENGYUN 2H,2018-050A,2026-07-20T20:20:52.018656,1.00267064,.0002089,3.1162,78.6829,129.0421,115.1487,0,U,43491,999,2977,0,-.128E-5,0
METOP-C,2018-087A,2026-07-20T18:48:20.435040,14.21503807,.0002097,98.6625,260.7698,86.5858,273.5559,0,U,43689,999,39960,.34503E-4,.32E-6,0
GEO-KOMPSAT-2A,2018-100A,2026-07-20T20:34:58.164960,1.00272139,.0002426,0.0288,144.4664,313.0961,278.0654,0,U,43823,999,2796,0,-.344E-5,0
METEOR-M2 2,2019-038A,2026-07-20T21:25:10.442208,14.24372793,.0000345,98.9171,189.6786,352.2549,7.8624,0,U,44387,999,36609,-.53124E-4,-.169E-5,0
ARKTIKA-M 1,2021-016A,2026-07-14T09:46:38.558208,2.00611590,.7297332,63.2662,53.6722,270.0591,14.4994,0,U,47719,999,3933,0,-.301E-5,0
FENGYUN 3E,2021-062A,2026-07-20T21:14:11.594688,14.19905867,.0001991,98.7509,204.9184,30.2593,329.8697,0,U,49008,999,26136,-.84499E-4,-.223E-5,0
GOES 18,2022-021A,2026-07-20T17:36:21.915072,1.00270960,.0000372,0.0160,142.8122,11.9765,270.7972,0,U,51850,999,692,0,.96E-6,0
NOAA 21 (JPSS-2),2022-150A,2026-07-20T19:06:53.306784,14.19541667,.0002917,98.7059,140.0212,94.3736,265.7774,0,U,54234,999,19131,.33011E-4,.26E-6,0
METEOSAT-12 (MTG-I1),2022-170C,2026-07-20T19:58:13.526400,1.00269442,.0004073,0.7309,20.6931,80.9959,136.0830,0,U,54743,999,1331,0,-.9E-7,0
TIANMU-1 03,2023-039A,2026-07-20T19:10:04.064160,15.48144039,.0002082,97.5252,17.1095,6.0907,354.0368,0,U,55973,999,18603,.19342E-3,.10063E-3,0
TIANMU-1 04,2023-039B,2026-07-20T20:08:45.952800,15.48775955,.000245,97.5192,16.3085,350.3684,9.7519,0,U,55974,999,18605,.19291E-3,.10261E-3,0
TIANMU-1 05,2023-039C,2026-07-20T20:17:49.250688,15.48070905,.0002469,97.5236,16.7610,31.8906,328.2493,0,U,55975,999,18602,.20148E-3,.1046E-3,0
TIANMU-1 06,2023-039D,2026-07-20T20:16:46.494048,15.48672737,.0002509,97.5244,17.4303,20.9835,339.1518,0,U,55976,999,18605,.20728E-3,.10994E-3,0
FENGYUN 3G,2023-055A,2026-07-20T19:32:53.157696,15.53953344,.0006862,49.9914,172.5654,82.5579,277.6168,0,U,56232,999,18523,.24575E-3,.15757E-3,0
METEOR-M2 3,2023-091A,2026-07-20T21:28:13.378656,14.24049195,.0005087,98.6064,256.1798,77.6307,282.5441,0,U,57166,999,15931,.47772E-5,-.32E-6,0
TIANMU-1 07,2023-101A,2026-07-20T20:20:28.193856,15.30154024,.0003339,97.2574,251.7471,52.7575,307.3970,0,U,57399,999,16679,.13282E-3,.3801E-4,0
TIANMU-1 08,2023-101B,2026-07-20T21:06:28.578816,15.30157174,.0004046,97.2562,251.5441,31.0957,329.0523,0,U,57400,999,16679,.12779E-3,.3655E-4,0
TIANMU-1 09,2023-101C,2026-07-20T20:41:25.922976,15.30200975,.0003928,97.2520,250.9257,51.8138,308.3456,0,U,57401,999,16679,.15211E-3,.4371E-4,0
TIANMU-1 10,2023-101D,2026-07-20T19:55:42.119040,15.30173370,.000513,97.2600,251.9797,38.8482,321.3127,0,U,57402,999,16678,.13684E-3,.3921E-4,0
FENGYUN 3F,2023-111A,2026-07-20T20:49:51.540960,14.19943986,.0001163,98.6821,271.2465,75.1528,284.9777,0,U,57490,999,15364,.21601E-4,.2E-7,0
ARKTIKA-M 2,2023-198A,2026-07-15T04:12:00.091584,2.00608092,.69107365,63.2178,151.2342,267.3397,18.7345,0,U,58584,999,1888,0,.129E-5,0
TIANMU-1 11,2023-205A,2026-07-20T20:43:23.661984,15.27297850,.0007065,97.3446,222.8978,236.8946,123.1616,0,U,58645,999,14266,.13121E-3,.3437E-4,0
TIANMU-1 12,2023-205B,2026-07-20T20:04:52.352256,15.26977641,.0006328,97.3436,222.6157,215.7107,144.3709,0,U,58646,999,14264,.3968E-4,.979E-5,0
TIANMU-1 13,2023-205C,2026-07-20T20:52:44.641632,15.27122640,.0006451,97.3463,222.9309,190.2758,169.8350,0,U,58647,999,14264,.12856E-3,.3347E-4,0
TIANMU-1 14,2023-205D,2026-07-20T20:30:02.201760,15.27167672,.0007038,97.3399,222.0708,197.5372,162.5625,0,U,58648,999,14264,.14267E-3,.3729E-4,0
TIANMU-1 19,2023-208A,2026-07-20T20:43:24.271104,15.32029499,.0005156,97.4525,318.3514,178.1071,182.0190,0,U,58660,999,14248,.18463E-3,.5631E-4,0
TIANMU-1 20,2023-208B,2026-07-20T21:00:13.648608,15.33218092,.0006878,97.4468,319.0336,191.0329,169.0763,0,U,58661,999,14258,.16709E-3,.5285E-4,0
